{
  "norad_id": 57743,
  "name": "STARLINK-30361",
  "history": [
    {
      "epoch": "2026-05-06T15:45:07.413120Z",
      "apogee_km": 484.01738243957425,
      "perigee_km": 482.14975820033305,
      "latitude_deg": 3.635313058994055e-05,
      "longitude_deg": 104.13191419485648,
      "height_km": 483.06488568482735,
      "semi_major_axis_km": 6861.220570319953,
      "eccentricity": 0.0001361,
      "inclination_deg": 43.0004,
      "raan_deg": 204.9266,
      "arg_perigee_deg": 257.3399,
      "mean_anomaly_deg": 102.7301,
      "mean_motion_rev_day": 15.27568487
    },
    {
      "epoch": "2026-05-07T15:17:28.882176Z",
      "apogee_km": 484.15594022519053,
      "perigee_km": 482.0522837002618,
      "latitude_deg": -4.5806595230271635e-05,
      "longitude_deg": 104.53694408851956,
      "height_km": 483.0275994233022,
      "semi_major_axis_km": 6861.241111962726,
      "eccentricity": 0.0001533,
      "inclination_deg": 43.0002,
      "raan_deg": 199.3879,
      "arg_perigee_deg": 261.9838,
      "mean_anomaly_deg": 98.0839,
      "mean_motion_rev_day": 15.27561627
    },
    {
      "epoch": "2026-05-08T14:49:49.903680Z",
      "apogee_km": 484.168297742046,
      "perigee_km": 481.92331872719114,
      "latitude_deg": 2.0716604740539644e-05,
      "longitude_deg": 104.9426029655999,
      "height_km": 483.00658106214235,
      "semi_major_axis_km": 6861.182808234618,
      "eccentricity": 0.0001636,
      "inclination_deg": 43.0004,
      "raan_deg": 193.8478,
      "arg_perigee_deg": 260.5716,
      "mean_anomaly_deg": 99.4951,
      "mean_motion_rev_day": 15.27581098
    },
    {
      "epoch": "2026-05-09T11:13:50.818656Z",
      "apogee_km": 483.7984298325064,
      "perigee_km": 482.0955087913235,
      "latitude_deg": 2.1258499668123557e-05,
      "longitude_deg": 153.3006804779014,
      "height_km": 482.77704764831276,
      "semi_major_axis_km": 6861.083969311914,
      "eccentricity": 0.0001241,
      "inclination_deg": 42.9999,
      "raan_deg": 189.0475,
      "arg_perigee_deg": 266.3951,
      "mean_anomaly_deg": 93.6759,
      "mean_motion_rev_day": 15.27614107
    },
    {
      "epoch": "2026-05-10T10:46:11.537760Z",
      "apogee_km": 485.6476145127899,
      "perigee_km": 480.38236647528447,
      "latitude_deg": -2.426674625925632e-05,
      "longitude_deg": 153.7068848063262,
      "height_km": 482.1445782651076,
      "semi_major_axis_km": 6861.151990494037,
      "eccentricity": 0.0003837,
      "inclination_deg": 42.9995,
      "raan_deg": 183.5068,
      "arg_perigee_deg": 284.2651,
      "mean_anomaly_deg": 75.7774,
      "mean_motion_rev_day": 15.2759139
    },
    {
      "epoch": "2026-05-11T19:43:28.875936Z",
      "apogee_km": 484.13245726641435,
      "perigee_km": 481.9615786431332,
      "latitude_deg": -1.943721490105761e-05,
      "longitude_deg": 10.276740696555121,
      "height_km": 482.50436111389473,
      "semi_major_axis_km": 6861.1840179547735,
      "eccentricity": 0.0001582,
      "inclination_deg": 43.0001,
      "raan_deg": 175.7523,
      "arg_perigee_deg": 287.1191,
      "mean_anomaly_deg": 72.9487,
      "mean_motion_rev_day": 15.27580694
    },
    {
      "epoch": "2026-05-12T19:15:49.537152Z",
      "apogee_km": 483.97690259592764,
      "perigee_km": 482.106545275783,
      "latitude_deg": -5.7272667155310726e-06,
      "longitude_deg": 10.684451948438088,
      "height_km": 482.56614994494606,
      "semi_major_axis_km": 6861.178723935855,
      "eccentricity": 0.0001363,
      "inclination_deg": 42.997,
      "raan_deg": 170.2128,
      "arg_perigee_deg": 285.6265,
      "mean_anomaly_deg": 74.4436,
      "mean_motion_rev_day": 15.27582462
    },
    {
      "epoch": "2026-05-13T10:57:23.455008Z",
      "apogee_km": 483.9005232453683,
      "perigee_km": 482.1970280409905,
      "latitude_deg": -3.077204122211919e-05,
      "longitude_deg": 130.95692269373657,
      "height_km": 482.62042492290817,
      "semi_major_axis_km": 6861.185775643179,
      "eccentricity": 0.00012414,
      "inclination_deg": 42.9985,
      "raan_deg": 166.5211,
      "arg_perigee_deg": 283.9097,
      "mean_anomaly_deg": 76.1616,
      "mean_motion_rev_day": 15.27580107
    }
  ]
}